start=new Date('2022-11-24T00:00:00.000Z').valueOf();
sats=[{"TIME_SYSTEM":"UTC","OBJECT_NAME":"STARLINK-2501","MEAN_ANOMALY":"274.7995","ECCENTRICITY":"0.00016870","OBJECT_ID":"2021-036BG","PERIOD":"95.592","MEAN_MOTION_DDOT":"0.0000000000000","CENTER_NAME":"EARTH","DECAY_DATE":null,"REV_AT_EPOCH":"8686","TLE_LINE2":"2 48330  53.0565  97.6830 0001687  85.3186 274.7995 15.06399163 86864","SEMIMAJOR_AXIS":"6925.351","EPOCH":"2022-11-23T16:11:19.564800","MEAN_MOTION":"15.06399163","MEAN_MOTION_DOT":"-0.00001095","GP_ID":"218600424","RA_OF_ASC_NODE":"97.6830","EPHEMERIS_TYPE":"0","REF_FRAME":"TEME","CLASSIFICATION_TYPE":"U","FILE":"3668355","OBJECT_TYPE":"PAYLOAD","PERIAPSIS":"546.048","ELEMENT_SET_NO":"999","SITE":"AFETR","MEAN_ELEMENT_THEORY":"SGP4","TLE_LINE1":"1 48330U 21036BG  22327.67453200 -.00001095  00000-0 -54618-4 0  9998","APOAPSIS":"548.384","ARG_OF_PERICENTER":"85.3186","INCLINATION":"53.0565","LAUNCH_DATE":"2021-04-29","COUNTRY_CODE":"US","BSTAR":"-0.00005461800000","RCS_SIZE":"LARGE","NORAD_CAT_ID":"48330"},{"OBJECT_ID":"2021-036BH","MEAN_ANOMALY":"306.3928","ECCENTRICITY":"0.00016550","TIME_SYSTEM":"UTC","OBJECT_NAME":"STARLINK-2514","PERIOD":"95.592","CENTER_NAME":"EARTH","DECAY_DATE":null,"MEAN_MOTION_DDOT":"0.0000000000000","REV_AT_EPOCH":"8686","SEMIMAJOR_AXIS":"6925.347","TLE_LINE2":"2 48331  53.0567  97.6969 0001655  53.7213 306.3928 15.06400547 86862","MEAN_MOTION":"15.06400547","MEAN_MOTION_DOT":"-0.00000353","EPOCH":"2022-11-23T16:06:00.798048","FILE":"3668355","CLASSIFICATION_TYPE":"U","REF_FRAME":"TEME","GP_ID":"218599680","EPHEMERIS_TYPE":"0","RA_OF_ASC_NODE":"97.6969","OBJECT_TYPE":"PAYLOAD","ELEMENT_SET_NO":"999","PERIAPSIS":"546.066","TLE_LINE1":"1 48331U 21036BH  22327.67084257 -.00000353  00000-0 -48240-5 0  9992","APOAPSIS":"548.358","MEAN_ELEMENT_THEORY":"SGP4","SITE":"AFETR","LAUNCH_DATE":"2021-04-29","INCLINATION":"53.0567","ARG_OF_PERICENTER":"53.7213","BSTAR":"-0.00000482400000","COUNTRY_CODE":"US","NORAD_CAT_ID":"48331","RCS_SIZE":"LARGE"},{"SEMIMAJOR_AXIS":"6925.239","TLE_LINE2":"2 48332  53.0565  97.6828 0001258  94.7212 265.3920 15.06435784 86865","MEAN_MOTION_DOT":"0.00000441","MEAN_MOTION":"15.06435784","EPOCH":"2022-11-23T16:04:37.318368","FILE":"3668355","CLASSIFICATION_TYPE":"U","REF_FRAME":"TEME","GP_ID":"218599930","EPHEMERIS_TYPE":"0","RA_OF_ASC_NODE":"97.6828","OBJECT_TYPE":"PAYLOAD","OBJECT_ID":"2021-036BJ","MEAN_ANOMALY":"265.3920","ECCENTRICITY":"0.00012580","TIME_SYSTEM":"UTC","OBJECT_NAME":"STARLINK-2511","PERIOD":"95.590","CENTER_NAME":"EARTH","DECAY_DATE":null,"MEAN_MOTION_DDOT":"0.0000000000000","REV_AT_EPOCH":"8686","LAUNCH_DATE":"2021-04-29","INCLINATION":"53.0565","ARG_OF_PERICENTER":"94.7212","BSTAR":"0.00004848700000","COUNTRY_CODE":"US","NORAD_CAT_ID":"48332","RCS_SIZE":"LARGE","PERIAPSIS":"546.233","ELEMENT_SET_NO":"999","TLE_LINE1":"1 48332U 21036BJ  22327.66987637  .00000441  00000-0  48487-4 0  9994","MEAN_ELEMENT_THEORY":"SGP4","APOAPSIS":"547.975","SITE":"AFETR"},{"OBJECT_TYPE":"PAYLOAD","FILE":"3668355","CLASSIFICATION_TYPE":"U","REF_FRAME":"TEME","GP_ID":"218600181","EPHEMERIS_TYPE":"0","RA_OF_ASC_NODE":"97.1353","MEAN_MOTION_DOT":"0.00000234","MEAN_MOTION":"15.06397389","EPOCH":"2022-11-23T19:06:28.706112","SEMIMAJOR_AXIS":"6925.357","TLE_LINE2":"2 48333  53.0572  97.1353 0001619  54.1342 305.9797 15.06397389 86880","REV_AT_EPOCH":"8688","DECAY_DATE":null,"CENTER_NAME":"EARTH","MEAN_MOTION_DDOT":"0.0000000000000","PERIOD":"95.592","OBJECT_ID":"2021-036BK","ECCENTRICITY":"0.00016190","MEAN_ANOMALY":"305.9797","OBJECT_NAME":"STARLINK-2518","TIME_SYSTEM":"UTC","NORAD_CAT_ID":"48333","RCS_SIZE":"LARGE","BSTAR":"0.00003460200000","COUNTRY_CODE":"US","LAUNCH_DATE":"2021-04-29","INCLINATION":"53.0572","ARG_OF_PERICENTER":"54.1342","TLE_LINE1":"1 48333U 21036BK  22327.79616558  .00000234  00000-0  34602-4 0  9994","APOAPSIS":"548.343","MEAN_ELEMENT_THEORY":"SGP4","SITE":"AFETR","ELEMENT_SET_NO":"999","PERIAPSIS":"546.100"},{"RCS_SIZE":"LARGE","NORAD_CAT_ID":"48334","LAUNCH_DATE":"2021-04-29","ARG_OF_PERICENTER":"87.4306","INCLINATION":"53.0546","BSTAR":"-0.00000964300000","COUNTRY_CODE":"US","TLE_LINE1":"1 48334U 21036BL  22327.65978610 -.00000425  00000-0 -96430-5 0  9992","MEAN_ELEMENT_THEORY":"SGP4","APOAPSIS":"548.133","SITE":"AFETR","ELEMENT_SET_NO":"999","PERIAPSIS":"546.300","CLASSIFICATION_TYPE":"U","FILE":"3668355","GP_ID":"218600925","EPHEMERIS_TYPE":"0","RA_OF_ASC_NODE":"97.7317","REF_FRAME":"TEME","OBJECT_TYPE":"PAYLOAD","TLE_LINE2":"2 48334  53.0546  97.7317 0001323  87.4306 272.6834 15.06399069 86866","SEMIMAJOR_AXIS":"6925.351","MEAN_MOTION_DOT":"-0.00000425","MEAN_MOTION":"15.06399069","EPOCH":"2022-11-23T15:50:05.519040","MEAN_MOTION_DDOT":"0.0000000000000","DECAY_DATE":null,"CENTER_NAME":"EARTH","REV_AT_EPOCH":"8686","OBJECT_ID":"2021-036BL","TIME_SYSTEM":"UTC","OBJECT_NAME":"STARLINK-2470","MEAN_ANOMALY":"272.6834","ECCENTRICITY":"0.00013230","PERIOD":"95.592"},{"BSTAR":"-0.00006542600000","COUNTRY_CODE":"US","LAUNCH_DATE":"2021-04-29","ARG_OF_PERICENTER":"81.2022","INCLINATION":"53.0547","RCS_SIZE":"LARGE","NORAD_CAT_ID":"48335","ELEMENT_SET_NO":"999","PERIAPSIS":"546.316","MEAN_ELEMENT_THEORY":"SGP4","TLE_LINE1":"1 48335U 21036BM  22327.72245382 -.00001256  00000-0 -65426-4 0  9997","APOAPSIS":"548.111","SITE":"AFETR","MEAN_MOTION_DOT":"-0.00001256","MEAN_MOTION":"15.06400061","EPOCH":"2022-11-23T17:20:20.010048","TLE_LINE2":"2 48335  53.0547  97.4650 0001296  81.2022 278.9114 15.06400061 86877","SEMIMAJOR_AXIS":"6925.348","OBJECT_TYPE":"PAYLOAD","CLASSIFICATION_TYPE":"U","FILE":"3668355","RA_OF_ASC_NODE":"97.4650","GP_ID":"218599180","EPHEMERIS_TYPE":"0","REF_FRAME":"TEME","PERIOD":"95.592","OBJECT_ID":"2021-036BM","TIME_SYSTEM":"UTC","OBJECT_NAME":"STARLINK-2441","MEAN_ANOMALY":"278.9114","ECCENTRICITY":"0.00012960","REV_AT_EPOCH":"8687","MEAN_MOTION_DDOT":"0.0000000000000","DECAY_DATE":null,"CENTER_NAME":"EARTH"},{"PERIAPSIS":"546.264","ELEMENT_SET_NO":"999","SITE":"AFETR","APOAPSIS":"548.255","TLE_LINE1":"1 48353U 21038A   22327.79433057 -.00001467  00000-0 -79628-4 0  9997","MEAN_ELEMENT_THEORY":"SGP4","INCLINATION":"53.0556","ARG_OF_PERICENTER":"61.5745","LAUNCH_DATE":"2021-05-04","COUNTRY_CODE":"US","BSTAR":"-0.00007962800000","NORAD_CAT_ID":"48353","RCS_SIZE":"LARGE","ECCENTRICITY":"0.00014370","MEAN_ANOMALY":"298.5388","TIME_SYSTEM":"UTC","OBJECT_NAME":"STARLINK-2613","OBJECT_ID":"2021-038A","PERIOD":"95.593","CENTER_NAME":"EARTH","DECAY_DATE":null,"MEAN_MOTION_DDOT":"0.0000000000000","REV_AT_EPOCH":"8587","SEMIMAJOR_AXIS":"6925.395","TLE_LINE2":"2 48353  53.0556 357.1429 0001437  61.5745 298.5388 15.06384990 85879","EPOCH":"2022-11-23T19:03:50.161248","MEAN_MOTION_DOT":"-0.00001467","MEAN_MOTION":"15.06384990","REF_FRAME":"TEME","GP_ID":"218599932","RA_OF_ASC_NODE":"357.1429","EPHEMERIS_TYPE":"0","FILE":"3668355","CLASSIFICATION_TYPE":"U","OBJECT_TYPE":"PAYLOAD"},{"NORAD_CAT_ID":"48354","RCS_SIZE":"LARGE","INCLINATION":"53.0549","ARG_OF_PERICENTER":"64.7895","LAUNCH_DATE":"2021-05-04","COUNTRY_CODE":"US","BSTAR":"0.00002907500000","SITE":"AFETR","APOAPSIS":"548.272","TLE_LINE1":"1 48354U 21038B   22327.79063104  .00000152  00000-0  29075-4 0  9999","MEAN_ELEMENT_THEORY":"SGP4","ELEMENT_SET_NO":"999","PERIAPSIS":"546.156","REF_FRAME":"TEME","RA_OF_ASC_NODE":"357.1591","GP_ID":"218600183","EPHEMERIS_TYPE":"0","FILE":"3668355","CLASSIFICATION_TYPE":"U","OBJECT_TYPE":"PAYLOAD","SEMIMAJOR_AXIS":"6925.349","TLE_LINE2":"2 48354  53.0549 357.1591 0001528  64.7895 295.3252 15.06399842 85871","EPOCH":"2022-11-23T18:58:30.521856","MEAN_MOTION":"15.06399842","MEAN_MOTION_DOT":"0.00000152","CENTER_NAME":"EARTH","DECAY_DATE":null,"MEAN_MOTION_DDOT":"0.0000000000000","REV_AT_EPOCH":"8587","ECCENTRICITY":"0.00015280","MEAN_ANOMALY":"295.3252","TIME_SYSTEM":"UTC","OBJECT_NAME":"STARLINK-2674","OBJECT_ID":"2021-038B","PERIOD":"95.592"},{"DECAY_DATE":null,"CENTER_NAME":"EARTH","MEAN_MOTION_DDOT":"0.0000000000000","REV_AT_EPOCH":"8587","OBJECT_ID":"2021-038C","MEAN_ANOMALY":"295.7111","ECCENTRICITY":"0.00017960","TIME_SYSTEM":"UTC","OBJECT_NAME":"STARLINK-2635","PERIOD":"95.594","FILE":"3668355","CLASSIFICATION_TYPE":"U","REF_FRAME":"TEME","GP_ID":"218600927","EPHEMERIS_TYPE":"0","RA_OF_ASC_NODE":"357.1835","OBJECT_TYPE":"PAYLOAD","SEMIMAJOR_AXIS":"6925.453","TLE_LINE2":"2 48355  53.0561 357.1835 0001796  64.4064 295.7111 15.06366019 85877","MEAN_MOTION_DOT":"0.00006302","MEAN_MOTION":"15.06366019","EPOCH":"2022-11-23T18:53:13.645536","MEAN_ELEMENT_THEORY":"SGP4","TLE_LINE1":"1 48355U 21038C   22327.78696349  .00006302  00000-0  44202-3 0  9993","APOAPSIS":"548.562","SITE":"AFETR","ELEMENT_SET_NO":"999","PERIAPSIS":"546.074","NORAD_CAT_ID":"48355","RCS_SIZE":"LARGE","LAUNCH_DATE":"2021-05-04","INCLINATION":"53.0561","ARG_OF_PERICENTER":"64.4064","BSTAR":"0.00044202000000","COUNTRY_CODE":"US"},{"LAUNCH_DATE":"2021-05-04","INCLINATION":"53.0555","ARG_OF_PERICENTER":"64.5777","BSTAR":"0.00000734120000","COUNTRY_CODE":"US","NORAD_CAT_ID":"48356","RCS_SIZE":"LARGE","ELEMENT_SET_NO":"999","PERIAPSIS":"546.052","TLE_LINE1":"1 48356U 21038D   22327.78327109 -.00000172  00000-0  73412-5 0  9996","APOAPSIS":"548.429","MEAN_ELEMENT_THEORY":"SGP4","SITE":"AFETR","SEMIMAJOR_AXIS":"6925.376","TLE_LINE2":"2 48356  53.0555 357.1795 0001716  64.5777 295.5389 15.06391113 85878","MEAN_MOTION_DOT":"-0.00000172","MEAN_MOTION":"15.06391113","EPOCH":"2022-11-23T18:47:54.622176","FILE":"3668355","CLASSIFICATION_TYPE":"U","REF_FRAME":"TEME","EPHEMERIS_TYPE":"0","GP_ID":"218599182","RA_OF_ASC_NODE":"357.1795","OBJECT_TYPE":"PAYLOAD","OBJECT_ID":"2021-038D","ECCENTRICITY":"0.00017160","MEAN_ANOMALY":"295.5389","TIME_SYSTEM":"UTC","OBJECT_NAME":"STARLINK-2637","PERIOD":"95.593","CENTER_NAME":"EARTH","DECAY_DATE":null,"MEAN_MOTION_DDOT":"0.0000000000000","REV_AT_EPOCH":"8587"}];
